FLOCK 4G-30             
1 62679U 25009BY  26068.70871345  .00013147  00000+0  49475-3 0  9990
2 62679  97.3969 150.6012 0003794 342.4152  17.6955 15.27244548121340
STARLINK-35429          
1 66590U 25270C   26068.96677601  .00040130  00000+0  14584-2 0  9997
2 66590  43.0021  55.0111 0001162 238.4822 121.5916 15.27613920 17852
