[{"OBJECT_NAME":"FLOCK 4G-30","OBJECT_ID":"2025-009BY","EPOCH":"2026-03-09T17:00:32.842080","MEAN_MOTION":15.27244548,"ECCENTRICITY":0.00037948,"INCLINATION":97.3969,"RA_OF_ASC_NODE":150.6012,"ARG_OF_PERICENTER":342.4152,"MEAN_ANOMALY":17.6955,"EPHEMERIS_TYPE":0,"CLASSIFICATION_TYPE":"U","NORAD_CAT_ID":62679,"ELEMENT_SET_NO":999,"REV_AT_EPOCH":12134,"BSTAR":0.00049474629,"MEAN_MOTION_DOT":0.00013147,"MEAN_MOTION_DDOT":0},{"OBJECT_NAME":"STARLINK-35429","OBJECT_ID":"2025-270C","EPOCH":"2026-03-09T23:12:09.447264","MEAN_MOTION":15.2761392,"ECCENTRICITY":0.00011618,"INCLINATION":43.0021,"RA_OF_ASC_NODE":55.0111,"ARG_OF_PERICENTER":238.4822,"MEAN_ANOMALY":121.5916,"EPHEMERIS_TYPE":0,"CLASSIFICATION_TYPE":"U","NORAD_CAT_ID":66590,"ELEMENT_SET_NO":999,"REV_AT_EPOCH":1785,"BSTAR":0.0014584051,"MEAN_MOTION_DOT":0.0004013,"MEAN_MOTION_DDOT":0}]
